{
  "type": "FeatureCollection",
  "features": [
    {
      "type": "Feature",
      "properties": {
        "OBJECT_NAME": "COSMOS 2477 (745)",
        "OBJECT_ID": "2011-064B",
        "EPOCH": "2025-11-29T21:10:50.094336",
        "MEAN_MOTION": 2.13102712,
        "ECCENTRICITY": 0.0020945,
        "INCLINATION": 65.1619,
        "RA_OF_ASC_NODE": 79.6839,
        "ARG_OF_PERICENTER": 233.6607,
        "MEAN_ANOMALY": 211.395,
        "EPHEMERIS_TYPE": 0,
        "CLASSIFICATION_TYPE": "U",
        "NORAD_CAT_ID": 37868,
        "ELEMENT_SET_NO": 999,
        "REV_AT_EPOCH": 10951,
        "BSTAR": 0,
        "MEAN_MOTION_DOT": 0,
        "MEAN_MOTION_DDOT": 0,
        "norad_id": 37868,
        "name": "COSMOS 2477 (745)",
        "group": "glo-ops",
        "longitude_deg": NaN,
        "latitude_deg": NaN,
        "alt_km": NaN,
        "orbit_class": "HEO",
        "timestamp": "2025-11-30T09:33:02.503133+00:00"
      },
      "geometry": {
        "type": "Point",
        "coordinates": [
          NaN,
          NaN
        ]
      }
    },
    {
      "type": "Feature",
      "properties": {
        "OBJECT_NAME": "COSMOS 2475 (743)",
        "OBJECT_ID": "2011-064C",
        "EPOCH": "2025-11-27T11:52:57.325152",
        "MEAN_MOTION": 2.13101456,
        "ECCENTRICITY": 0.00258586,
        "INCLINATION": 65.1676,
        "RA_OF_ASC_NODE": 79.7846,
        "ARG_OF_PERICENTER": 247.9398,
        "MEAN_ANOMALY": 121.59,
        "EPHEMERIS_TYPE": 0,
        "CLASSIFICATION_TYPE": "U",
        "NORAD_CAT_ID": 37869,
        "ELEMENT_SET_NO": 999,
        "REV_AT_EPOCH": 10947,
        "BSTAR": 0,
        "MEAN_MOTION_DOT": 1.6e-07,
        "MEAN_MOTION_DDOT": 0,
        "norad_id": 37869,
        "name": "COSMOS 2475 (743)",
        "group": "glo-ops",
        "longitude_deg": NaN,
        "latitude_deg": NaN,
        "alt_km": NaN,
        "orbit_class": "HEO",
        "timestamp": "2025-11-30T09:33:02.503140+00:00"
      },
      "geometry": {
        "type": "Point",
        "coordinates": [
          NaN,
          NaN
        ]
      }
    },
    {
      "type": "Feature",
      "properties": {
        "OBJECT_NAME": "COSMOS 2485 (747)",
        "OBJECT_ID": "2013-019A",
        "EPOCH": "2025-11-24T07:30:54.982368",
        "MEAN_MOTION": 2.13103115,
        "ECCENTRICITY": 0.0024274,
        "INCLINATION": 65.3036,
        "RA_OF_ASC_NODE": 80.4871,
        "ARG_OF_PERICENTER": 228.0776,
        "MEAN_ANOMALY": 131.7167,
        "EPHEMERIS_TYPE": 0,
        "CLASSIFICATION_TYPE": "U",
        "NORAD_CAT_ID": 39155,
        "ELEMENT_SET_NO": 999,
        "REV_AT_EPOCH": 9791,
        "BSTAR": 0,
        "MEAN_MOTION_DOT": 1.2e-07,
        "MEAN_MOTION_DDOT": 0,
        "norad_id": 39155,
        "name": "COSMOS 2485 (747)",
        "group": "glo-ops",
        "longitude_deg": NaN,
        "latitude_deg": NaN,
        "alt_km": NaN,
        "orbit_class": "HEO",
        "timestamp": "2025-11-30T09:33:02.503915+00:00"
      },
      "geometry": {
        "type": "Point",
        "coordinates": [
          NaN,
          NaN
        ]
      }
    },
    {
      "type": "Feature",
      "properties": {
        "OBJECT_NAME": "COSMOS 2492 (754)",
        "OBJECT_ID": "2014-012A",
        "EPOCH": "2025-11-26T03:34:14.840832",
        "MEAN_MOTION": 2.13103222,
        "ECCENTRICITY": 0.00140964,
        "INCLINATION": 65.417,
        "RA_OF_ASC_NODE": 320.8337,
        "ARG_OF_PERICENTER": 310.0598,
        "MEAN_ANOMALY": 49.8317,
        "EPHEMERIS_TYPE": 0,
        "CLASSIFICATION_TYPE": "U",
        "NORAD_CAT_ID": 39620,
        "ELEMENT_SET_NO": 999,
        "REV_AT_EPOCH": 9091,
        "BSTAR": 0,
        "MEAN_MOTION_DOT": -1.6e-07,
        "MEAN_MOTION_DDOT": 0,
        "norad_id": 39620,
        "name": "COSMOS 2492 (754)",
        "group": "glo-ops",
        "longitude_deg": NaN,
        "latitude_deg": NaN,
        "alt_km": NaN,
        "orbit_class": "HEO",
        "timestamp": "2025-11-30T09:33:02.504515+00:00"
      },
      "geometry": {
        "type": "Point",
        "coordinates": [
          NaN,
          NaN
        ]
      }
    },
    {
      "type": "Feature",
      "properties": {
        "OBJECT_NAME": "COSMOS 2500 (755)",
        "OBJECT_ID": "2014-032A",
        "EPOCH": "2025-11-30T01:48:20.193408",
        "MEAN_MOTION": 2.13105939,
        "ECCENTRICITY": 0.0008387,
        "INCLINATION": 65.3506,
        "RA_OF_ASC_NODE": 320.4637,
        "ARG_OF_PERICENTER": 218.9458,
        "MEAN_ANOMALY": 141.0093,
        "EPHEMERIS_TYPE": 0,
        "CLASSIFICATION_TYPE": "U",
        "NORAD_CAT_ID": 40001,
        "ELEMENT_SET_NO": 999,
        "REV_AT_EPOCH": 8921,
        "BSTAR": 0,
        "MEAN_MOTION_DOT": -1.9e-07,
        "MEAN_MOTION_DDOT": 0,
        "norad_id": 40001,
        "name": "COSMOS 2500 (755)",
        "group": "glo-ops",
        "longitude_deg": NaN,
        "latitude_deg": NaN,
        "alt_km": NaN,
        "orbit_class": "HEO",
        "timestamp": "2025-11-30T09:33:02.504625+00:00"
      },
      "geometry": {
        "type": "Point",
        "coordinates": [
          NaN,
          NaN
        ]
      }
    },
    {
      "type": "Feature",
      "properties": {
        "OBJECT_NAME": "COSMOS 2501 (702K)",
        "OBJECT_ID": "2014-075A",
        "EPOCH": "2025-11-29T20:46:24.123936",
        "MEAN_MOTION": 2.13101314,
        "ECCENTRICITY": 0.0020177,
        "INCLINATION": 63.6137,
        "RA_OF_ASC_NODE": 197.2711,
        "ARG_OF_PERICENTER": 204.8562,
        "MEAN_ANOMALY": 155.1342,
        "EPHEMERIS_TYPE": 0,
        "CLASSIFICATION_TYPE": "U",
        "NORAD_CAT_ID": 40315,
        "ELEMENT_SET_NO": 999,
        "REV_AT_EPOCH": 8560,
        "BSTAR": 0,
        "MEAN_MOTION_DOT": 9.1e-07,
        "MEAN_MOTION_DDOT": 0,
        "norad_id": 40315,
        "name": "COSMOS 2501 (702K)",
        "group": "glo-ops",
        "longitude_deg": NaN,
        "latitude_deg": NaN,
        "alt_km": NaN,
        "orbit_class": "HEO",
        "timestamp": "2025-11-30T09:33:02.505100+00:00"
      },
      "geometry": {
        "type": "Point",
        "coordinates": [
          NaN,
          NaN
        ]
      }
    },
    {
      "type": "Feature",
      "properties": {
        "OBJECT_NAME": "COSMOS 2514 (751)",
        "OBJECT_ID": "2016-008A",
        "EPOCH": "2025-11-29T20:23:18.171168",
        "MEAN_MOTION": 2.13102651,
        "ECCENTRICITY": 0.0012577,
        "INCLINATION": 65.1411,
        "RA_OF_ASC_NODE": 319.8458,
        "ARG_OF_PERICENTER": 219.7884,
        "MEAN_ANOMALY": 140.1346,
        "EPHEMERIS_TYPE": 0,
        "CLASSIFICATION_TYPE": "U",
        "NORAD_CAT_ID": 41330,
        "ELEMENT_SET_NO": 999,
        "REV_AT_EPOCH": 7637,
        "BSTAR": 0,
        "MEAN_MOTION_DOT": -1.9e-07,
        "MEAN_MOTION_DDOT": 0,
        "norad_id": 41330,
        "name": "COSMOS 2514 (751)",
        "group": "glo-ops",
        "longitude_deg": NaN,
        "latitude_deg": NaN,
        "alt_km": NaN,
        "orbit_class": "HEO",
        "timestamp": "2025-11-30T09:33:02.505920+00:00"
      },
      "geometry": {
        "type": "Point",
        "coordinates": [
          NaN,
          NaN
        ]
      }
    },
    {
      "type": "Feature",
      "properties": {
        "OBJECT_NAME": "COSMOS 2522 (752)",
        "OBJECT_ID": "2017-055A",
        "EPOCH": "2025-11-27T08:11:58.229952",
        "MEAN_MOTION": 2.13101917,
        "ECCENTRICITY": 0.00066454,
        "INCLINATION": 64.0756,
        "RA_OF_ASC_NODE": 198.7536,
        "ARG_OF_PERICENTER": 227.0793,
        "MEAN_ANOMALY": 132.9509,
        "EPHEMERIS_TYPE": 0,
        "CLASSIFICATION_TYPE": "U",
        "NORAD_CAT_ID": 42939,
        "ELEMENT_SET_NO": 999,
        "REV_AT_EPOCH": 6367,
        "BSTAR": 0,
        "MEAN_MOTION_DOT": 6.6e-07,
        "MEAN_MOTION_DDOT": 0,
        "norad_id": 42939,
        "name": "COSMOS 2522 (752)",
        "group": "glo-ops",
        "longitude_deg": NaN,
        "latitude_deg": NaN,
        "alt_km": NaN,
        "orbit_class": "HEO",
        "timestamp": "2025-11-30T09:33:02.506995+00:00"
      },
      "geometry": {
        "type": "Point",
        "coordinates": [
          NaN,
          NaN
        ]
      }
    }
  ]
}